KUIPER-00008            
1 63724U 25088A   26015.84693775  .00003207  00000+0  28334-3 0  9992
2 63724  51.8918 327.8418 0007398 284.6167  75.3983 14.98970488 40131
KUIPER-00009            
1 63725U 25088B   26015.29916123 -.00009977  00000+0 -12815-2 0  9995
2 63725  51.9039 342.7177 0009847 285.2244  74.7629 14.79894012 39875
KUIPER-00010            
1 63726U 25088C   26015.83337963  .00018568  00000+0  24592-2 0  9994
2 63726  51.9024 316.8159 0000860 155.2212 213.7276 14.79912677  3523
KUIPER-00011            
1 63727U 25088D   26015.85734025 -.00014567  00000+0 -18865-2 0  9990
2 63727  51.9024 324.2807 0011338 306.6758  53.3162 14.79864246 39930
KUIPER-00012            
1 63728U 25088E   26015.83314511  .00002495  00000+0  38386-3 0  9999
2 63728  51.9025 308.5422 0008024 315.5931  44.4386 14.76671059 40105
KUIPER-00013            
1 63729U 25088F   26015.29804861  .00002268  00000+0  32748-3 0  9996
2 63729  51.9024 344.1855 0005156 209.0873 150.9803 14.79799729 39660
KUIPER-00014            
1 63730U 25088G   26014.62082626  .00001531  00000+0  22939-3 0  9994
2 63730  51.9041 348.1481 0004616 295.9686  64.0800 14.80022948 39369
KUIPER-00015            
1 63731U 25088H   26015.35460975  .00003243  00000+0  43016-3 0  9994
2 63731  51.9007 355.3746 0009479 258.1441 101.8459 14.82259981 39785
